INMARSAT 4-F2 (SOUTHPA*)
1 28899U 05044A   26095.77338251 -.00000257  00000+0  00000+0 0  9990
2 28899   4.9998  43.7735 0003435 352.7537 219.4551  1.00271546 74793
GSAT-8 (GAGAN/PRN 127)  
1 37605U 11022A   26095.75587576  .00000087  00000+0  00000+0 0  9992
2 37605   1.9438  82.6919 0005583 225.0902 213.4397  1.00272319 52498
LUCH 5A (SDCM/PRN 140)  
1 37951U 11074B   26095.70673557 -.00000046  00000+0  00000+0 0  9999
2 37951   8.5703  74.8592 0003142 287.6374 252.8557  1.00271539 52326
SES-5 (EGNOS/PRN 136)   
1 38652U 12036A   26095.67464976  .00000035  00000+0  00000+0 0  9993
2 38652   0.0591 303.5934 0002095  73.8979  64.3242  1.00273023 43722
GSAT-10 (GAGAN/PRN 128) 
1 38779U 12051B   26095.88358310 -.00000163  00000+0  00000+0 0  9990
2 38779   0.0805 265.6473 0006343 172.1928 157.4125  1.00273082 49379
LUCH 5B (SDCM/PRN 125)  
1 38977U 12061A   26095.67040308 -.00000133  00000+0  00000+0 0  9990
2 38977  10.3294  50.5875 0002303 229.5191 138.8952  1.00273663 48884
ASTRA 5B (EGNOS/PRN 123)
1 39617U 14011B   26095.82096227  .00000139  00000+0  00000+0 0  9992
2 39617   0.0718 307.4353 0003338  49.8929 155.8220  1.00273659 43943
LUCH 5V (SDCM/PRN 141)  
1 39727U 14023A   26095.91136294 -.00000265  00000+0  00000+0 0  9997
2 39727   4.9562  70.4510 0002925 321.7923 224.7809  1.00270107 43634
GSAT-15 (GAGAN/PRN 139) 
1 41028U 15065A   26095.88011102  .00000000  00000+0  00000+0 0  9993
2 41028   0.0168 214.8735 0002853 197.0018 192.6242  1.00269213 38074
EUTELSAT 117 WEST B (W*)
1 41589U 16038B   26095.65046965 -.00000010  00000+0  00000+0 0  9998
2 41589   0.0146  59.4786 0000268 233.8299  17.8137  1.00270922 35931
SES-15 (WAAS/PRN 133)   
1 42709U 17026A   26095.64812964  .00000061  00000+0  00000+0 0  9995
2 42709   0.0303 321.5526 0000765  62.8767 273.6753  1.00271138  6707
QZS-2 (QZSS/PRN 194)    
1 42738U 17028A   26095.27195000 -.00000203  00000+0  00000+0 0  9992
2 42738  39.5436 244.2157 0742095 270.6147 276.4746  1.00253447  6890
QZS-3 (QZSS/PRN 199)    
1 42917U 17048A   26095.86149007 -.00000346  00000+0  00000+0 0  9992
2 42917   0.0653 143.0036 0002135 237.5537 250.7709  1.00270886 31533
QZS-4 (QZSS/PRN 195)    
1 42965U 17062A   26095.55710506 -.00000328  00000+0  00000+0 0  9995
2 42965  40.1522 344.4118 0747309 270.5045 280.0496  1.00272593 31079
BEIDOU-3 G1 (PRN 130)   
1 43683U 18085A   26091.86294493 -.00000284  00000+0  00000+0 0  9992
2 43683   2.8820  99.4564 0002058  12.9832 168.3736  1.00268589 27296
EUTELSAT 5 WEST B (EGN*)
1 44624U 19067A   26095.81532892 -.00000040  00000+0  00000+0 0  9996
2 44624   0.0662  13.2924 0003469  12.4354  96.8962  1.00272960 23718
BEIDOU-3 G2 (PRN 144)   
1 45344U 20017A   26095.90441778 -.00000138  00000+0  00000+0 0  9993
2 45344   2.7196  46.1612 0002873 338.5909 215.0832  1.00272127 22539
